#aV2008  3 11  0  0   .00000000      96 DD+AD WGS84 FIT  NGA
## 1470 172800.00000000   900.00000000 54536  .0000000000000
+   31     1  2  3  4  5  6  8  9 10 11 12 13 14 15 16 17 18
+         19 20 21 22 23 24 25 26 27 28 29 30 31 32  0  0  0
+          0  0  0  0  0  0  0  0  0  0  0  0  0  0  0  0  0
+          0  0  0  0  0  0  0  0  0  0  0  0  0  0  0  0  0
+          0  0  0  0  0  0  0  0  0  0  0  0  0  0  0  0  0
++         0  0  0  0  0  0  0  0  0  0  0  0  0  0  0  0  0
++         0  0  0  0  0  0  0  0  0  0  0  0  0  0  0  0  0
++         0  0  0  0  0  0  0  0  0  0  0  0  0  0  0  0  0
++         0  0  0  0  0  0  0  0  0  0  0  0  0  0  0  0  0
++         0  0  0  0  0  0  0  0  0  0  0  0  0  0  0  0  0
%c cc cc ccc ccc cccc cccc cccc cccc ccccc ccccc ccccc ccccc
%c cc cc ccc ccc cccc cccc cccc cccc ccccc ccccc ccccc ccccc
%f  0.0000000  0.000000000  0.00000000000  0.000000000000000
%f  0.0000000  0.000000000  0.00000000000  0.000000000000000
%i    0    0    0    0      0      0      0      0         0
%i    0    0    0    0      0      0      0      0         0
/*      NGA, ST. LOUIS,MO.                                  
/*   EPHEMERIS COMPUTED FROM  3 DAYS OF DATA                
/* CCCCCCCCCCCCCCCCCCCCCCCCCCCCCCCCCCCCCCCCCCCCCCCCCCCCCCCCC
/* CCCCCCCCCCCCCCCCCCCCCCCCCCCCCCCCCCCCCCCCCCCCCCCCCCCCCCCCC
*  2008  3 11 18  0   .00000000                                                 
P  1 -14882.177452   8237.110774 -20159.526791    191.575853                    
V  1   3793.262362 -25766.615799 -13254.089184       .025769                    
P  2  22920.594223 -12581.413831   3305.300803    181.280296                    
V  2   5539.663717   1543.459774 -31215.967614       .031229                    
P  3 -11420.114544  18510.610525  14757.311835    198.956550                    
V  3  -2745.520519 -19466.277534  22270.242637       .050889                    
P  4  25299.845274  -4561.885835  -7489.288314    -24.319736                    
V  4  -7519.567364   6187.571669 -29190.258267      -.071121                    
P  5 -11493.525933 -19431.344773 -14367.059416    718.322885                    
V  5  16373.176781   7353.481962 -23333.020083       .119281                    
P  6 -14791.963412  -7859.686909  20797.274048     59.421498                    
V  6   3026.732866 -25935.188026  -7753.668511       .155342                    
P  8  22175.226841   2335.521622  14693.271115   -144.485054                    
V  8 -16999.506480   7620.627748  23849.600625      -.015807                    
P  9   5050.569971 -17459.423553 -19930.000469    114.633487                    
V  9  22179.307980  -9234.332499  14323.240883       .017965                    
P 10  12439.682951  -9158.809460  21504.603494   -285.677723                    
V 10  21427.570803  17356.004838  -4647.037495      -.556298                    
P 11   -263.908267  18610.779792 -19000.727963     26.872673                    
V 11 -21315.693298  11671.553776  12149.589389      -.001644                    
P 12  -6076.880068 -19419.202157 -17020.052699   -357.947564                    
V 12  18379.277452  11765.506931 -19792.919595      -.004975                    
P 13   7259.217381  19769.440678  16093.159867    244.828956                    
V 13  -4575.459919  20078.493868 -22417.722517       .020085                    
P 14 -14157.611273  -3501.550322 -22100.480512   -288.926921                    
V 14   4261.376025 -27897.492094   1594.905192       .038480                    
P 15   7020.566653 -24906.069406   6006.024149    -84.349643                    
V 15   1941.885371   7861.230413  30457.638139      -.038739                    
P 16 -16087.924734   5479.356305  20531.883440    131.745487                    
V 16 -19854.562431 -16560.151255 -10993.998786      -.008779                    
P 17  14779.030318   3995.058503 -21683.096133     41.217874                    
V 17  -3794.629016  27332.835279   2292.900487      -.004868                    
P 18 -19239.784162 -18380.442604   2945.241598   -197.298677                    
V 18   4520.974793     -7.548970  30965.721785       .032658                    
P 19  -8491.488878  24528.168357   5267.675973     23.835011                    
V 19  -1657.078896  -7057.732010  30851.216474       .012728                    
P 20   8268.579346  19920.256262 -15647.368030    118.829229                    
V 20 -17175.210642  -9839.470355 -21714.698711      -.007756                    
P 21 -16226.212233  -8940.595621  19398.926374     69.796193                    
V 21  22056.104992  -9986.416276  13362.282859      -.008807                    
P 22 -22701.537964  -9379.002239 -10007.134375    209.484132                    
V 22  -8131.309608 -10476.829065  27796.957040       .003282                    
P 23   -449.159644  26101.451894   4099.298411    340.201673                    
V 23  -3276.507186   4947.719020 -31577.465485       .026517                    
P 24  -1494.234617 -15739.599112  21540.274439     77.315771                    
V 24  25413.602972  -8965.691641  -4545.648068       .030725                    
P 25   6126.300974  14093.347777  22031.543879    528.460384                    
V 25 -23834.451754  12883.238886  -1465.868798       .095062                    
P 26   9380.467240 -22872.866043   8433.538839    205.021440                    
V 26    256.104345  11701.292803  30342.922341       .093725                    
P 27  14397.084704   9053.348054  21112.140006    173.579756                    
V 27 -22287.467080  11837.851681  10306.507183       .026890                    
P 28  22818.921533  11514.444531  -7466.088918    -16.352634                    
V 28   6263.680912   8024.344898  29671.160427      -.005210                    
P 29  -6136.171933 -22322.057913  13161.024445    -50.499680                    
V 29   4512.635934 -16038.434102 -25297.333493       .034139                    
P 30 -16337.453819 -19154.677542  -8954.174653     67.267901                    
V 30  10546.355094   3921.817838 -28600.230111       .015513                    
P 31 -25126.001644   6701.588073  -5455.953522    -12.371133                    
V 31   5599.400577  -5134.338359 -30805.239482      -.014530                    
P 32 -17651.291218   1933.845896 -19277.919430    247.562774                    
V 32 -18062.705870 -17945.049466  14579.902617       .080548                    
EOF
